[{"OBJECT_NAME":"STARLINK-2419","OBJECT_ID":"2021-018AV","EPOCH":"2026-03-09T22:07:36.438528","MEAN_MOTION":15.30183402,"ECCENTRICITY":8.302e-5,"INCLINATION":53.1596,"RA_OF_ASC_NODE":254.5564,"ARG_OF_PERICENTER":53.0754,"MEAN_ANOMALY":307.0323,"EPHEMERIS_TYPE":0,"CLASSIFICATION_TYPE":"U","NORAD_CAT_ID":47830,"ELEMENT_SET_NO":999,"REV_AT_EPOCH":27657,"BSTAR":-0.00016869833,"MEAN_MOTION_DOT":-5.349e-5,"MEAN_MOTION_DDOT":0},{"OBJECT_NAME":"YAM-7","OBJECT_ID":"2024-149AN","EPOCH":"2026-03-09T17:13:55.117920","MEAN_MOTION":15.30304554,"ECCENTRICITY":0.00019733,"INCLINATION":97.3828,"RA_OF_ASC_NODE":149.4631,"ARG_OF_PERICENTER":296.5121,"MEAN_ANOMALY":63.5918,"EPHEMERIS_TYPE":0,"CLASSIFICATION_TYPE":"U","NORAD_CAT_ID":60504,"ELEMENT_SET_NO":999,"REV_AT_EPOCH":8683,"BSTAR":0.00030984439,"MEAN_MOTION_DOT":9.009e-5,"MEAN_MOTION_DDOT":0}]
